ONEWEB-0228             
1 48780U 21045P   24285.53976078 -.00000137  00000+0 -39860-3 0  9996
2 48780  87.9120  21.3093 0001886 102.3346 257.7996 13.15548981163646
